STARLINK-5086           
1 54856U 22177AN  25179.39212379  .00000115  00000+0  23598-4 0  9994
2 54856  43.0047  61.9891 0000984 253.8593 106.2141 15.02536461138851
STARLINK-5078           
1 54857U 22177AP  25179.73561636 -.00000007  00000+0  14572-4 0  9999
2 54857  43.0046  60.2712 0001049 270.9128  89.1594 15.02532003137928
STARLINK-5407           
1 54858U 22177AQ  25179.07305729 -.00000840  00000+0 -47143-4 0  9992
2 54858  43.0046  63.8985 0001086 265.0213  95.0505 15.02533787138807
STARLINK-5409           
1 54859U 22177AR  25179.39545117  .00000319  00000+0  38689-4 0  9999
2 54859  43.0047  62.0138 0001238 266.1762  93.8939 15.02534663138856
STARLINK-5406           
1 54860U 22177AS  25179.05752711  .00001045  00000+0  92391-4 0  9991
2 54860  43.0036  63.7786 0001191 266.0473  94.0233 15.02540829138805
STARLINK-5400           
1 54861U 22177AT  25179.07416766 -.00000519  00000+0 -23336-4 0  9991
2 54861  43.0035  63.9029 0001125 268.9823  91.0891 15.02531618138807
STARLINK-5403           
1 54862U 22177AU  25179.36338790 -.00000405  00000+0 -14930-4 0  9998
2 54862  43.0044  62.6515 0001210 269.3923  90.6781 15.02535049138844
STARLINK-5405           
1 54863U 22177AV  25179.06639351  .00000039  00000+0  17936-4 0  9993
2 54863  43.0050  63.8475 0001057 269.6896  90.3825 15.02537088138808
STARLINK-5359           
1 54864U 22177AW  25179.05418808 -.00000700  00000+0 -36732-4 0  9997
2 54864  43.0040  63.7564 0001162 258.8267 101.2444 15.02532325138803
STARLINK-5411           
1 54865U 22177AX  25179.06972392  .00000264  00000+0  34582-4 0  9996
2 54865  43.0051  63.8687 0001190 253.5651 106.5061 15.02533469138806
STARLINK-5398           
1 54866U 22177AY  25179.37658479  .00000419  00000+0  46059-4 0  9992
2 54866  43.0051  61.8776 0001214 264.1762  95.8942 15.02533898138851
STARLINK-5396           
1 54867U 22177AZ  25179.72118332  .00000577  00000+0  57778-4 0  9996
2 54867  43.0051  60.1612 0001179 264.7947  95.2761 15.02534230137802
STARLINK-5379           
1 54868U 22177BA  25179.10623907 -.00000899  00000+0 -51470-4 0  9990
2 54868  43.0019  63.2863 0001281 260.3569  99.7129 15.02549803138816
STARLINK-5402           
1 54869U 22177BB  25179.71452357  .00000665  00000+0  64269-4 0  9996
2 54869  43.0048  60.1097 0001070 263.7261  96.3460 15.02534382137801
