[
  {
    "OBJECT_NAME": "STARLINK-5086",
    "OBJECT_ID": "2022-177AN",
    "EPOCH": "2025-06-28T09:24:39.495456",
    "MEAN_MOTION": 15.02536461,
    "ECCENTRICITY": 9.84e-05,
    "INCLINATION": 43.0047,
    "RA_OF_ASC_NODE": 61.9891,
    "ARG_OF_PERICENTER": 253.8593,
    "MEAN_ANOMALY": 106.2141,
    "EPHEMERIS_TYPE": 0,
    "CLASSIFICATION_TYPE": "U",
    "NORAD_CAT_ID": 54856,
    "ELEMENT_SET_NO": 999,
    "REV_AT_EPOCH": 13885,
    "BSTAR": 2.3598e-05,
    "MEAN_MOTION_DOT": 1.15e-06,
    "MEAN_MOTION_DDOT": 0
  },
  {
    "OBJECT_NAME": "STARLINK-5078",
    "OBJECT_ID": "2022-177AP",
    "EPOCH": "2025-06-28T17:39:17.253504",
    "MEAN_MOTION": 15.02532003,
    "ECCENTRICITY": 0.0001049,
    "INCLINATION": 43.0046,
    "RA_OF_ASC_NODE": 60.2712,
    "ARG_OF_PERICENTER": 270.9128,
    "MEAN_ANOMALY": 89.1594,
    "EPHEMERIS_TYPE": 0,
    "CLASSIFICATION_TYPE": "U",
    "NORAD_CAT_ID": 54857,
    "ELEMENT_SET_NO": 999,
    "REV_AT_EPOCH": 13792,
    "BSTAR": 1.4572e-05,
    "MEAN_MOTION_DOT": -7e-08,
    "MEAN_MOTION_DDOT": 0
  },
  {
    "OBJECT_NAME": "STARLINK-5407",
    "OBJECT_ID": "2022-177AQ",
    "EPOCH": "2025-06-28T01:45:12.149856",
    "MEAN_MOTION": 15.02533787,
    "ECCENTRICITY": 0.0001086,
    "INCLINATION": 43.0046,
    "RA_OF_ASC_NODE": 63.8985,
    "ARG_OF_PERICENTER": 265.0213,
    "MEAN_ANOMALY": 95.0505,
    "EPHEMERIS_TYPE": 0,
    "CLASSIFICATION_TYPE": "U",
    "NORAD_CAT_ID": 54858,
    "ELEMENT_SET_NO": 999,
    "REV_AT_EPOCH": 13880,
    "BSTAR": -4.7143e-05,
    "MEAN_MOTION_DOT": -8.4e-06,
    "MEAN_MOTION_DDOT": 0
  },
  {
    "OBJECT_NAME": "STARLINK-5409",
    "OBJECT_ID": "2022-177AR",
    "EPOCH": "2025-06-28T09:29:26.981088",
    "MEAN_MOTION": 15.02534663,
    "ECCENTRICITY": 0.0001238,
    "INCLINATION": 43.0047,
    "RA_OF_ASC_NODE": 62.0138,
    "ARG_OF_PERICENTER": 266.1762,
    "MEAN_ANOMALY": 93.8939,
    "EPHEMERIS_TYPE": 0,
    "CLASSIFICATION_TYPE": "U",
    "NORAD_CAT_ID": 54859,
    "ELEMENT_SET_NO": 999,
    "REV_AT_EPOCH": 13885,
    "BSTAR": 3.8689e-05,
    "MEAN_MOTION_DOT": 3.19e-06,
    "MEAN_MOTION_DDOT": 0
  },
  {
    "OBJECT_NAME": "STARLINK-5406",
    "OBJECT_ID": "2022-177AS",
    "EPOCH": "2025-06-28T01:22:50.342304",
    "MEAN_MOTION": 15.02540829,
    "ECCENTRICITY": 0.0001191,
    "INCLINATION": 43.0036,
    "RA_OF_ASC_NODE": 63.7786,
    "ARG_OF_PERICENTER": 266.0473,
    "MEAN_ANOMALY": 94.0233,
    "EPHEMERIS_TYPE": 0,
    "CLASSIFICATION_TYPE": "U",
    "NORAD_CAT_ID": 54860,
    "ELEMENT_SET_NO": 999,
    "REV_AT_EPOCH": 13880,
    "BSTAR": 9.2391e-05,
    "MEAN_MOTION_DOT": 1.045e-05,
    "MEAN_MOTION_DDOT": 0
  },
  {
    "OBJECT_NAME": "STARLINK-5400",
    "OBJECT_ID": "2022-177AT",
    "EPOCH": "2025-06-28T01:46:48.085824",
    "MEAN_MOTION": 15.02531618,
    "ECCENTRICITY": 0.0001125,
    "INCLINATION": 43.0035,
    "RA_OF_ASC_NODE": 63.9029,
    "ARG_OF_PERICENTER": 268.9823,
    "MEAN_ANOMALY": 91.0891,
    "EPHEMERIS_TYPE": 0,
    "CLASSIFICATION_TYPE": "U",
    "NORAD_CAT_ID": 54861,
    "ELEMENT_SET_NO": 999,
    "REV_AT_EPOCH": 13880,
    "BSTAR": -2.3336e-05,
    "MEAN_MOTION_DOT": -5.19e-06,
    "MEAN_MOTION_DDOT": 0
  },
  {
    "OBJECT_NAME": "STARLINK-5403",
    "OBJECT_ID": "2022-177AU",
    "EPOCH": "2025-06-28T08:43:16.714560",
    "MEAN_MOTION": 15.02535049,
    "ECCENTRICITY": 0.000121,
    "INCLINATION": 43.0044,
    "RA_OF_ASC_NODE": 62.6515,
    "ARG_OF_PERICENTER": 269.3923,
    "MEAN_ANOMALY": 90.6781,
    "EPHEMERIS_TYPE": 0,
    "CLASSIFICATION_TYPE": "U",
    "NORAD_CAT_ID": 54862,
    "ELEMENT_SET_NO": 999,
    "REV_AT_EPOCH": 13884,
    "BSTAR": -1.493e-05,
    "MEAN_MOTION_DOT": -4.05e-06,
    "MEAN_MOTION_DDOT": 0
  },
  {
    "OBJECT_NAME": "STARLINK-5405",
    "OBJECT_ID": "2022-177AV",
    "EPOCH": "2025-06-28T01:35:36.399264",
    "MEAN_MOTION": 15.02537088,
    "ECCENTRICITY": 0.0001057,
    "INCLINATION": 43.005,
    "RA_OF_ASC_NODE": 63.8475,
    "ARG_OF_PERICENTER": 269.6896,
    "MEAN_ANOMALY": 90.3825,
    "EPHEMERIS_TYPE": 0,
    "CLASSIFICATION_TYPE": "U",
    "NORAD_CAT_ID": 54863,
    "ELEMENT_SET_NO": 999,
    "REV_AT_EPOCH": 13880,
    "BSTAR": 1.7936e-05,
    "MEAN_MOTION_DOT": 3.9e-07,
    "MEAN_MOTION_DDOT": 0
  },
  {
    "OBJECT_NAME": "STARLINK-5359",
    "OBJECT_ID": "2022-177AW",
    "EPOCH": "2025-06-28T01:18:01.850112",
    "MEAN_MOTION": 15.02532325,
    "ECCENTRICITY": 0.0001162,
    "INCLINATION": 43.004,
    "RA_OF_ASC_NODE": 63.7564,
    "ARG_OF_PERICENTER": 258.8267,
    "MEAN_ANOMALY": 101.2444,
    "EPHEMERIS_TYPE": 0,
    "CLASSIFICATION_TYPE": "U",
    "NORAD_CAT_ID": 54864,
    "ELEMENT_SET_NO": 999,
    "REV_AT_EPOCH": 13880,
    "BSTAR": -3.6732e-05,
    "MEAN_MOTION_DOT": -7e-06,
    "MEAN_MOTION_DDOT": 0
  },
  {
    "OBJECT_NAME": "STARLINK-5411",
    "OBJECT_ID": "2022-177AX",
    "EPOCH": "2025-06-28T01:40:24.146688",
    "MEAN_MOTION": 15.02533469,
    "ECCENTRICITY": 0.000119,
    "INCLINATION": 43.0051,
    "RA_OF_ASC_NODE": 63.8687,
    "ARG_OF_PERICENTER": 253.5651,
    "MEAN_ANOMALY": 106.5061,
    "EPHEMERIS_TYPE": 0,
    "CLASSIFICATION_TYPE": "U",
    "NORAD_CAT_ID": 54865,
    "ELEMENT_SET_NO": 999,
    "REV_AT_EPOCH": 13880,
    "BSTAR": 3.4582e-05,
    "MEAN_MOTION_DOT": 2.64e-06,
    "MEAN_MOTION_DDOT": 0
  },
  {
    "OBJECT_NAME": "STARLINK-5398",
    "OBJECT_ID": "2022-177AY",
    "EPOCH": "2025-06-28T09:02:16.925856",
    "MEAN_MOTION": 15.02533898,
    "ECCENTRICITY": 0.0001214,
    "INCLINATION": 43.0051,
    "RA_OF_ASC_NODE": 61.8776,
    "ARG_OF_PERICENTER": 264.1762,
    "MEAN_ANOMALY": 95.8942,
    "EPHEMERIS_TYPE": 0,
    "CLASSIFICATION_TYPE": "U",
    "NORAD_CAT_ID": 54866,
    "ELEMENT_SET_NO": 999,
    "REV_AT_EPOCH": 13885,
    "BSTAR": 4.6059e-05,
    "MEAN_MOTION_DOT": 4.19e-06,
    "MEAN_MOTION_DDOT": 0
  },
  {
    "OBJECT_NAME": "STARLINK-5396",
    "OBJECT_ID": "2022-177AZ",
    "EPOCH": "2025-06-28T17:18:30.238848",
    "MEAN_MOTION": 15.0253423,
    "ECCENTRICITY": 0.0001179,
    "INCLINATION": 43.0051,
    "RA_OF_ASC_NODE": 60.1612,
    "ARG_OF_PERICENTER": 264.7947,
    "MEAN_ANOMALY": 95.2761,
    "EPHEMERIS_TYPE": 0,
    "CLASSIFICATION_TYPE": "U",
    "NORAD_CAT_ID": 54867,
    "ELEMENT_SET_NO": 999,
    "REV_AT_EPOCH": 13780,
    "BSTAR": 5.7778e-05,
    "MEAN_MOTION_DOT": 5.77e-06,
    "MEAN_MOTION_DDOT": 0
  },
  {
    "OBJECT_NAME": "STARLINK-5379",
    "OBJECT_ID": "2022-177BA",
    "EPOCH": "2025-06-28T02:32:59.055648",
    "MEAN_MOTION": 15.02549803,
    "ECCENTRICITY": 0.0001281,
    "INCLINATION": 43.0019,
    "RA_OF_ASC_NODE": 63.2863,
    "ARG_OF_PERICENTER": 260.3569,
    "MEAN_ANOMALY": 99.7129,
    "EPHEMERIS_TYPE": 0,
    "CLASSIFICATION_TYPE": "U",
    "NORAD_CAT_ID": 54868,
    "ELEMENT_SET_NO": 999,
    "REV_AT_EPOCH": 13881,
    "BSTAR": -5.147e-05,
    "MEAN_MOTION_DOT": -8.99e-06,
    "MEAN_MOTION_DDOT": 0
  },
  {
    "OBJECT_NAME": "STARLINK-5402",
    "OBJECT_ID": "2022-177BB",
    "EPOCH": "2025-06-28T17:08:54.836448",
    "MEAN_MOTION": 15.02534382,
    "ECCENTRICITY": 0.000107,
    "INCLINATION": 43.0048,
    "RA_OF_ASC_NODE": 60.1097,
    "ARG_OF_PERICENTER": 263.7261,
    "MEAN_ANOMALY": 96.346,
    "EPHEMERIS_TYPE": 0,
    "CLASSIFICATION_TYPE": "U",
    "NORAD_CAT_ID": 54869,
    "ELEMENT_SET_NO": 999,
    "REV_AT_EPOCH": 13780,
    "BSTAR": 6.4269e-05,
    "MEAN_MOTION_DOT": 6.65e-06,
    "MEAN_MOTION_DDOT": 0
  }
]